{"type": "FeatureCollection", "features": [ {"type": "Feature", "properties": {"norad_id": 34909, "name": "COSMOS 2251 DEB", "group": "cosmos-2251-debris", "lat": 6.906831286196646, "lon": 78.6367216244753, "alt_km": 691.4946612131525, "timestamp": "2025-12-12T16:50:33.541939+00:00", "meta": {"OBJECT_NAME": "COSMOS 2251 DEB", "OBJECT_ID": "1993-036ADE", "EPOCH": "2025-12-11T16:26:21.719904", "MEAN_MOTION": 14.7782075, "ECCENTRICITY": 0.00845921, "INCLINATION": 74.0142, "RA_OF_ASC_NODE": 78.6447, "ARG_OF_PERICENTER": 214.714, "MEAN_ANOMALY": 144.85, "EPHEMERIS_TYPE": 0, "CLASSIFICATION_TYPE": "U", "NORAD_CAT_ID": 34909, "ELEMENT_SET_NO": 999, "REV_AT_EPOCH": 66836, "BSTAR": 0.00098598419, "MEAN_MOTION_DOT": 7.492e-05, "MEAN_MOTION_DDOT": 0}, "tle": {"line1": "1 34909U 93036ADE 25345.68497361  .00007492  00000+0  98598-3 0  9992", "line2": "2 34909  74.0142  78.6447 0084592 214.7140 144.8500 14.77820750668360"}}, "geometry": {"type": "Point", "coordinates": [78.6367216244753, 6.906831286196646]}}, {"type": "Feature", "properties": {"norad_id": 34910, "name": "COSMOS 2251 DEB", "group": "cosmos-2251-debris", "lat": -12.072564035748405, "lon": 97.94319098809325, "alt_km": 1323.2522211696587, "timestamp": "2025-12-12T16:50:33.541949+00:00", "meta": {"OBJECT_NAME": "COSMOS 2251 DEB", "OBJECT_ID": "1993-036ADF", "EPOCH": "2025-12-04T03:27:09.174816", "MEAN_MOTION": 13.3765034, "ECCENTRICITY": 0.04679235, "INCLINATION": 73.8763, "RA_OF_ASC_NODE": 114.9889, "ARG_OF_PERICENTER": 235.2756, "MEAN_ANOMALY": 311.3517, "EPHEMERIS_TYPE": 0, "CLASSIFICATION_TYPE": "U", "NORAD_CAT_ID": 34910, "ELEMENT_SET_NO": 999, "REV_AT_EPOCH": 81409, "BSTAR": 0.0018660381, "MEAN_MOTION_DOT": 1.821e-05, "MEAN_MOTION_DDOT": 0}, "tle": {"line1": "1 34910U 93036ADF 25338.14385619  .00001821  00000+0  18660-2 0  9990", "line2": "2 34910  73.8763 114.9889 0467923 235.2756 311.3517 13.37650340814099"}}, "geometry": {"type": "Point", "coordinates": [97.94319098809325, -12.072564035748405]}}, {"type": "Feature", "properties": {"norad_id": 34911, "name": "COSMOS 2251 DEB", "group": "cosmos-2251-debris", "lat": 67.39232954149078, "lon": 21.408933861995994, "alt_km": 693.9495236578259, "timestamp": "2025-12-12T16:50:33.541959+00:00", "meta": {"OBJECT_NAME": "COSMOS 2251 DEB", "OBJECT_ID": "1993-036ADG", "EPOCH": "2025-12-12T03:54:43.347744", "MEAN_MOTION": 14.59370675, "ECCENTRICITY": 0.00835656, "INCLINATION": 74.0412, "RA_OF_ASC_NODE": 245.8432, "ARG_OF_PERICENTER": 11.3776, "MEAN_ANOMALY": 144.4363, "EPHEMERIS_TYPE": 0, "CLASSIFICATION_TYPE": "U", "NORAD_CAT_ID": 34911, "ELEMENT_SET_NO": 999, "REV_AT_EPOCH": 88578, "BSTAR": 0.00025463849, "MEAN_MOTION_DOT": 1.233e-05, "MEAN_MOTION_DDOT": 0}, "tle": {"line1": "1 34911U 93036ADG 25346.16300171  .00001233  00000+0  25464-3 0  9990", "line2": "2 34911  74.0412 245.8432 0083565  11.3776 144.4363 14.59370675885786"}}, "geometry": {"type": "Point", "coordinates": [21.408933861995994, 67.39232954149078]}}, {"type": "Feature", "properties": {"norad_id": 34913, "name": "COSMOS 2251 DEB", "group": "cosmos-2251-debris", "lat": 63.142203320386244, "lon": 68.12815293540018, "alt_km": 766.99786251973, "timestamp": "2025-12-12T16:50:33.541970+00:00", "meta": {"OBJECT_NAME": "COSMOS 2251 DEB", "OBJECT_ID": "1993-036ADJ", "EPOCH": "2025-12-10T13:00:18.152064", "MEAN_MOTION": 14.346364, "ECCENTRICITY": 0.0020264, "INCLINATION": 74.0283, "RA_OF_ASC_NODE": 286.5252, "ARG_OF_PERICENTER": 37.1811, "MEAN_ANOMALY": 83.6827, "EPHEMERIS_TYPE": 0, "CLASSIFICATION_TYPE": "U", "NORAD_CAT_ID": 34913, "ELEMENT_SET_NO": 999, "REV_AT_EPOCH": 65156, "BSTAR": 9.4175e-05, "MEAN_MOTION_DOT": 2.41e-06, "MEAN_MOTION_DDOT": 0}, "tle": {"line1": "1 34913U 93036ADJ 25344.54187676  .00000241  00000+0  94175-4 0  9999", "line2": "2 34913  74.0283 286.5252 0020264  37.1811  83.6827 14.34636400651569"}}, "geometry": {"type": "Point", "coordinates": [68.12815293540018, 63.142203320386244]}}, {"type": "Feature", "properties": {"norad_id": 34918, "name": "COSMOS 2251 DEB", "group": "cosmos-2251-debris", "lat": -67.71011868593698, "lon": 177.86316091086258, "alt_km": 674.8542803928231, "timestamp": "2025-12-12T16:50:33.541980+00:00", "meta": {"OBJECT_NAME": "COSMOS 2251 DEB", "OBJECT_ID": "1993-036ADP", "EPOCH": "2025-12-10T06:27:09.237024", "MEAN_MOTION": 14.6111897, "ECCENTRICITY": 0.0033898, "INCLINATION": 74.0712, "RA_OF_ASC_NODE": 318.3402, "ARG_OF_PERICENTER": 286.4186, "MEAN_ANOMALY": 135.6409, "EPHEMERIS_TYPE": 0, "CLASSIFICATION_TYPE": "U", "NORAD_CAT_ID": 34918, "ELEMENT_SET_NO": 999, "REV_AT_EPOCH": 65300, "BSTAR": 0.0032517, "MEAN_MOTION_DOT": 0.00016131, "MEAN_MOTION_DDOT": 0}, "tle": {"line1": "1 34918U 93036ADP 25344.26885691  .00016131  00000+0  32517-2 0  9990", "line2": "2 34918  74.0712 318.3402 0033898 286.4186 135.6409 14.61118970653005"}}, "geometry": {"type": "Point", "coordinates": [177.86316091086258, -67.71011868593698]}}, {"type": "Feature", "properties": {"norad_id": 34924, "name": "COSMOS 2251 DEB", "group": "cosmos-2251-debris", "lat": -65.56715636351701, "lon": -51.436798916197574, "alt_km": 691.1494855624805, "timestamp": "2025-12-12T16:50:33.541990+00:00", "meta": {"OBJECT_NAME": "COSMOS 2251 DEB", "OBJECT_ID": "1993-036ADV", "EPOCH": "2025-12-12T02:52:16.730112", "MEAN_MOTION": 14.6002427, "ECCENTRICITY": 0.00544218, "INCLINATION": 74.0406, "RA_OF_ASC_NODE": 90.6311, "ARG_OF_PERICENTER": 175.3806, "MEAN_ANOMALY": 256.7074, "EPHEMERIS_TYPE": 0, "CLASSIFICATION_TYPE": "U", "NORAD_CAT_ID": 34924, "ELEMENT_SET_NO": 999, "REV_AT_EPOCH": 87714, "BSTAR": 0.0016423651, "MEAN_MOTION_DOT": 8.03e-05, "MEAN_MOTION_DDOT": 0}, "tle": {"line1": "1 34924U 93036ADV 25346.11963808  .00008030  00000+0  16424-2 0  9998", "line2": "2 34924  74.0406  90.6311 0054421 175.3806 256.7074 14.60024270877145"}}, "geometry": {"type": "Point", "coordinates": [-51.436798916197574, -65.56715636351701]}}, {"type": "Feature", "properties": {"norad_id": 34944, "name": "COSMOS 2251 DEB", "group": "cosmos-2251-debris", "lat": -0.25446922983731135, "lon": -127.96434829273211, "alt_km": 816.6895637900416, "timestamp": "2025-12-12T16:50:33.542000+00:00", "meta": {"OBJECT_NAME": "COSMOS 2251 DEB", "OBJECT_ID": "1993-036ADX", "EPOCH": "2025-12-07T09:30:46.029312", "MEAN_MOTION": 14.14167925, "ECCENTRICITY": 0.02195348, "INCLINATION": 73.7495, "RA_OF_ASC_NODE": 241.6775, "ARG_OF_PERICENTER": 90.2413, "MEAN_ANOMALY": 272.3884, "EPHEMERIS_TYPE": 0, "CLASSIFICATION_TYPE": "U", "NORAD_CAT_ID": 34944, "ELEMENT_SET_NO": 999, "REV_AT_EPOCH": 64007, "BSTAR": 0.00099492053, "MEAN_MOTION_DOT": 2.364e-05, "MEAN_MOTION_DDOT": 0}, "tle": {"line1": "1 34944U 93036ADX 25341.39636608  .00002364  00000+0  99492-3 0  9991", "line2": "2 34944  73.7495 241.6775 0219534  90.2413 272.3884 14.14167925640077"}}, "geometry": {"type": "Point", "coordinates": [-127.96434829273211, -0.25446922983731135]}}, {"type": "Feature", "properties": {"norad_id": 34946, "name": "COSMOS 2251 DEB", "group": "cosmos-2251-debris", "lat": 73.3528136395205, "lon": 88.82804224045873, "alt_km": 648.0882598533753, "timestamp": "2025-12-12T16:50:33.542010+00:00", "meta": {"OBJECT_NAME": "COSMOS 2251 DEB", "OBJECT_ID": "1993-036ADZ", "EPOCH": "2025-12-11T09:12:32.820480", "MEAN_MOTION": 14.61985522, "ECCENTRICITY": 0.0048688, "INCLINATION": 74.0237, "RA_OF_ASC_NODE": 344.7115, "ARG_OF_PERICENTER": 122.3418, "MEAN_ANOMALY": 238.2476, "EPHEMERIS_TYPE": 0, "CLASSIFICATION_TYPE": "U", "NORAD_CAT_ID": 34946, "ELEMENT_SET_NO": 999, "REV_AT_EPOCH": 88189, "BSTAR": 0.00095647955, "MEAN_MOTION_DOT": 4.849e-05, "MEAN_MOTION_DDOT": 0}, "tle": {"line1": "1 34946U 93036ADZ 25345.38371320  .00004849  00000+0  95648-3 0  9992", "line2": "2 34946  74.0237 344.7115 0048688 122.3418 238.2476 14.61985522881890"}}, "geometry": {"type": "Point", "coordinates": [88.82804224045873, 73.3528136395205]}}, {"type": "Feature", "properties": {"norad_id": 34949, "name": "COSMOS 2251 DEB", "group": "cosmos-2251-debris", "lat": -7.81621413410104, "lon": 107.4788240817324, "alt_km": 658.4539596559634, "timestamp": "2025-12-12T16:50:33.542020+00:00", "meta": {"OBJECT_NAME": "COSMOS 2251 DEB", "OBJECT_ID": "1993-036AEC", "EPOCH": "2025-12-09T15:34:41.030400", "MEAN_MOTION": 14.73963573, "ECCENTRICITY": 0.008042, "INCLINATION": 74.0182, "RA_OF_ASC_NODE": 115.6941, "ARG_OF_PERICENTER": 261.6413, "MEAN_ANOMALY": 97.5637, "EPHEMERIS_TYPE": 0, "CLASSIFICATION_TYPE": "U", "NORAD_CAT_ID": 34949, "ELEMENT_SET_NO": 999, "REV_AT_EPOCH": 88316, "BSTAR": 0.00087029, "MEAN_MOTION_DOT": 5.989e-05, "MEAN_MOTION_DDOT": 0}, "tle": {"line1": "1 34949U 93036AEC 25343.64908600  .00005989  00000+0  87029-3 0  9999", "line2": "2 34949  74.0182 115.6941 0080420 261.6413  97.5637 14.73963573883168"}}, "geometry": {"type": "Point", "coordinates": [107.4788240817324, -7.81621413410104]}}, {"type": "Feature", "properties": {"norad_id": 34953, "name": "COSMOS 2251 DEB", "group": "cosmos-2251-debris", "lat": -32.159143736489376, "lon": 17.234799887648478, "alt_km": 645.5117468838844, "timestamp": "2025-12-12T16:50:33.542030+00:00", "meta": {"OBJECT_NAME": "COSMOS 2251 DEB", "OBJECT_ID": "1993-036AEG", "EPOCH": "2025-12-11T13:53:44.512224", "MEAN_MOTION": 14.68942464, "ECCENTRICITY": 0.00579752, "INCLINATION": 74.0933, "RA_OF_ASC_NODE": 29.7286, "ARG_OF_PERICENTER": 22.1241, "MEAN_ANOMALY": 129.8119, "EPHEMERIS_TYPE": 0, "CLASSIFICATION_TYPE": "U", "NORAD_CAT_ID": 34953, "ELEMENT_SET_NO": 999, "REV_AT_EPOCH": 88111, "BSTAR": 0.0012309907, "MEAN_MOTION_DOT": 7.37e-05, "MEAN_MOTION_DDOT": 0}, "tle": {"line1": "1 34953U 93036AEG 25345.57898741  .00007370  00000+0  12310-2 0  9998", "line2": "2 34953  74.0933  29.7286 0057975  22.1241 129.8119 14.68942464881119"}}, "geometry": {"type": "Point", "coordinates": [17.234799887648478, -32.159143736489376]}}]}